[{"OBJECT_NAME":"STARLINK-5375","OBJECT_ID":"2023-046BA","EPOCH":"2026-03-09T22:00:01.999584","MEAN_MOTION":15.08605244,"ECCENTRICITY":9.678e-5,"INCLINATION":43.0007,"RA_OF_ASC_NODE":144.5171,"ARG_OF_PERICENTER":295.9531,"MEAN_ANOMALY":244.7343,"EPHEMERIS_TYPE":0,"CLASSIFICATION_TYPE":"U","NORAD_CAT_ID":56140,"ELEMENT_SET_NO":999,"REV_AT_EPOCH":567,"BSTAR":0.00028450337,"MEAN_MOTION_DOT":4.313e-5,"MEAN_MOTION_DDOT":0},{"OBJECT_NAME":"NOAA 17 DEB","OBJECT_ID":"2002-032DT","EPOCH":"2026-03-08T22:47:54.624192","MEAN_MOTION":15.08678856,"ECCENTRICITY":0.0018728,"INCLINATION":98.77,"RA_OF_ASC_NODE":121.3607,"ARG_OF_PERICENTER":298.7191,"MEAN_ANOMALY":61.2152,"EPHEMERIS_TYPE":0,"CLASSIFICATION_TYPE":"U","NORAD_CAT_ID":49489,"ELEMENT_SET_NO":999,"REV_AT_EPOCH":24229,"BSTAR":0.0068247859,"MEAN_MOTION_DOT":0.00108865,"MEAN_MOTION_DDOT":0}]
